SKYSAT-A                
1 39418U 13066C   23150.90689752  .00002223  00000+0  17278-3 0  9994
2 39418  97.5406 217.3892 0030186 161.2505 198.9839 15.01954281520761
SKYSAT-B                
1 40072U 14037D   23151.20355709  .00001008  00000+0  13257-3 0  9990
2 40072  98.3627  41.1050 0004867 281.9185  78.1481 14.82574930480835
SKYSAT-C1               
1 41601U 16040C   23151.44502839  .00013236  00000+0  35427-3 0  9998
2 41601  97.1133 222.6463 0006706  78.0163 282.1834 15.38127201387519
SKYSAT-C4               
1 41771U 16058B   23150.91400127  .00013268  00000+0  33256-3 0  9996
2 41771  97.0679 210.2170 0008320  49.4966 310.7004 15.40131505374390
SKYSAT-C5               
1 41772U 16058C   23151.40996391  .00009031  00000+0  29272-3 0  9991
2 41772  97.2152 210.5883 0002562  78.1454 282.0075 15.32211988372938
SKYSAT-C2               
1 41773U 16058D   23151.13104530  .00011973  00000+0  32206-3 0  9997
2 41773  97.0695 210.7785 0003875  28.6402 331.5056 15.38010548374445
SKYSAT-C3               
1 41774U 16058E   23151.13504923  .00013848  00000+0  32940-3 0  9996
2 41774  97.0691 213.3308 0001504 121.1472 238.9923 15.41742356374610
SKYSAT-C11              
1 42987U 17068A   23150.85625131  .00012892  00000+0  34658-3 0  9994
2 42987  97.3204 273.5599 0003670 128.7161 231.4413 15.38021174311813
SKYSAT-C10              
1 42988U 17068B   23150.86610619  .00013237  00000+0  35634-3 0  9990
2 42988  97.3264 274.1073 0004375 161.8385 198.3017 15.37971320311843
SKYSAT-C9               
1 42989U 17068C   23150.87662473  .00013961  00000+0  37898-3 0  9995
2 42989  97.3195 273.0492 0015351 148.5377 211.6789 15.37588512312044
SKYSAT-C8               
1 42990U 17068D   23151.09739152  .00013541  00000+0  36330-3 0  9995
2 42990  97.3287 274.6882 0005010  86.8301 273.3517 15.38067812311892
SKYSAT-C7               
1 42991U 17068E   23150.84761385  .00013346  00000+0  35833-3 0  9991
2 42991  97.3280 274.5975 0004999 130.0407 230.1277 15.38048301311865
SKYSAT-C6               
1 42992U 17068F   23151.15204246  .00014156  00000+0  37980-3 0  9990
2 42992  97.3312 275.4153 0003686 135.2100 224.9443 15.38061495311921
FLOCK 3P'-2             
1 43120U 18004K   23151.45487821  .00210608  00000+0  27226-2 0  9991
2 43120  97.3325 228.8233 0009954 222.7528 137.2954 15.58172187299538
FLOCK 3P'-4             
1 43122U 18004M   23151.19751586  .00183213  00000+0  26696-2 0  9997
2 43122  97.3349 228.6003 0009933 226.5281 133.5147 15.55023423299486
FLOCK 3S-1              
1 43769U 18099M   23151.41524479  .00006876  00000+0  54977-3 0  9995
2 43769  97.5709 212.7193 0015176 191.6654 168.4221 15.00439388245089
SKYSAT-C12              
1 43797U 18099AR  23151.17422426  .00013010  00000+0  34578-3 0  9991
2 43797  97.0772 212.3570 0004132  19.1898 340.9503 15.38361923250956
SKYSAT-C13              
1 43802U 18099AW  23150.89810330  .00016515  00000+0  36607-3 0  9999
2 43802  97.1040 212.5553 0010611  97.9165 262.3289 15.43764309250459
FLOCK 4P-11             
1 44809U 19081F   23150.92828043  .00019318  00000+0  42882-3 0  9999
2 44809  97.3525 220.9631 0007836  63.3305 296.8745 15.43722689195198
FLOCK 4P-7              
1 44816U 19081N   23151.14546245  .00018850  00000+0  40483-3 0  9998
2 44816  97.3546 221.5892 0006042  55.4227 304.7591 15.44720881195245
FLOCK 4P-5              
1 44818U 19081Q   23151.16579084  .00021933  00000+0  50515-3 0  9992
2 44818  97.3536 221.1377 0006582  64.4232 295.7695 15.42605182195210
SKYSAT-C14              
1 45788U 20038BL  23151.07282101  .00019590  00000+0  44262-3 0  9992
2 45788  52.9835  78.3489 0009307 305.5815  54.4321 15.43174933168814
SKYSAT-C16              
1 45789U 20038BM  23151.40364375  .00008829  00000+0  14577-3 0  9993
2 45789  52.9866  74.0842 0004568 353.4486   6.6462 15.53117571168894
SKYSAT-C15              
1 45790U 20038BN  23151.42429704  .00018782  00000+0  42206-3 0  9994
2 45790  52.9832  76.2075 0011583 305.0445  54.9472 15.43345080168865
SKYSAT-C17              
1 46179U 20057BQ  23151.41466940  .00026107  00000+0  39260-3 0  9995
2 46179  52.9814 165.3682 0016495 105.6697 254.6134 15.54550412158188
SKYSAT-C18              
1 46180U 20057BR  23151.39098385  .00221260  30208-4  56038-3 0  9995
2 46180  52.9658 144.8138 0001675  63.2612 296.8586 15.95112576158497
SKYSAT-C19              
1 46235U 20057BS  23151.32522293  .00034819  00000+0  44367-3 0  9995
2 46235  52.9781 160.0816 0015178 113.0009 247.2605 15.58881394158284
FLOCK 4V-11             
1 46285U 20061P   23151.13268651  .00009417  00000+0  36693-3 0  9998
2 46285  97.4031 220.2770 0004748 119.3583 240.8130 15.26171247151263
FLOCK 4V-14             
1 46286U 20061Q   23151.18603207  .00011550  00000+0  44727-3 0  9992
2 46286  97.4038 220.3723 0004412 113.2346 246.9357 15.26322012151275
FLOCK 4V-8              
1 46288U 20061S   23151.17616435  .00011574  00000+0  44971-3 0  9997
2 46288  97.4029 220.3466 0003808 125.5320 234.6274 15.26212477151182
FLOCK 4V-6              
1 46289U 20061T   23150.67686711  .00006972  00000+0  29295-3 0  9994
2 46289  97.4074 219.6088 0002956 155.2404 204.8976 15.23738276151174
FLOCK 4V-5              
1 46290U 20061U   23151.18087600  .00031808  00000+0  14881-2 0  9995
2 46290  97.4051 218.4377 0003342 159.2201 200.9170 15.19684008151146
FLOCK 4V-7              
1 46291U 20061V   23151.19446227  .00029542  00000+0  10980-2 0  9999
2 46291  97.4037 220.5181 0003052 139.4737 220.6730 15.27483806151176
FLOCK 4V-10             
1 46296U 20061AA  23151.09968875  .00010367  00000+0  40338-3 0  9997
2 46296  97.4036 220.5472 0002442 100.3642 259.7872 15.26199474151238
FLOCK 4V-13             
1 46297U 20061AB  23151.41584643  .00010670  00000+0  41401-3 0  9990
2 46297  97.4039 220.8911 0002227  94.6191 265.5302 15.26285211151269
FLOCK 4V-1              
1 46313U 20061AT  23150.94483252  .00020647  00000+0  78906-3 0  9995
2 46313  97.4051 220.7993 0003557  74.6686 285.4945 15.26635007151227
FLOCK 4V-4              
1 46314U 20061AU  23151.13545269  .00045177  00000+0  15193-2 0  9998
2 46314  97.4028 221.1286 0002956 108.2490 251.9072 15.30662061151315
FLOCK 4V-16             
1 46527U 20061BD  23150.87870835  .00019714  00000+0  49436-3 0  9990
2 46527  97.3534 223.2477 0002636 348.0821  12.0362 15.40070648147918
FLOCK 4V-15             
1 46528U 20061BE  23151.15610076  .00020811  00000+0  52831-3 0  9995
2 46528  97.3513 223.8684 0002112  45.8096 314.3323 15.39686133148340
FLOCK 4V-17             
1 46529U 20061BF  23151.18232635  .00046028  00000+0  11490-2 0  9993
2 46529  97.3490 223.4614 0001649  30.2675 329.8666 15.40033974147542
FLOCK 4V-18             
1 46597U 20061BG  23151.16714500  .00017883  00000+0  45537-3 0  9999
2 46597  97.3590 224.3298 0003420 354.6013   5.5195 15.39620620146906
FLOCK 4V-19             
1 46609U 20061BH  23150.93195349  .00020197  00000+0  51383-3 0  9999
2 46609  97.3457 222.9470 0000839  62.5531 297.5800 15.39627941146436
FLOCK 4V-20             
1 46612U 20061BJ  23151.16499170  .00008213  00000+0  28622-3 0  9993
2 46612  97.3610 222.3970 0003996   0.1837 359.9404 15.29898103145840
FLOCK 4V-22             
1 46735U 20061BL  23150.92250796  .00056620  00000+0  17006-2 0  9999
2 46735  97.3422 221.1677 0003783 303.4569  56.6312 15.34223036144709
FLOCK 4V-23             
1 46737U 20061BM  23151.16399868  .00060165  00000+0  18468-2 0  9994
2 46737  97.3502 222.1099 0003688 272.5314  87.5506 15.33515101144666
FLOCK 4V-24             
1 46738U 20061BN  23151.16961907  .00023476  00000+0  58862-3 0  9991
2 46738  97.3588 224.3095 0002635  13.2233 346.9082 15.40040097144310
FLOCK 4V-25             
1 46812U 20061BP  23150.67726646  .00019233  00000+0  48559-3 0  9996
2 46812  97.3471 222.8056 0001755 322.3688  37.7435 15.39869424143883
FLOCK 4E'-1             
1 46813U 20077A   23151.13108125  .00022077  00000+0  52589-3 0  9990
2 46813  97.3687 216.6585 0005801 250.1426 109.9196 15.41595424143598
FLOCK 4E'-7             
1 46814U 20077B   23151.14945790  .00024117  00000+0  57543-3 0  9991
2 46814  97.3695 216.8182 0006284 251.5919 108.4645 15.41524352143608
FLOCK 4E'-9             
1 46815U 20077C   23151.11951044  .00046982  00000+0  16141-2 0  9990
2 46815  97.3680 213.3278 0009952 255.0265 104.9874 15.29916279143399
FLOCK 4E'-8             
1 46816U 20077D   23151.08259352  .00019733  00000+0  46475-3 0  9998
2 46816  97.3733 218.1985 0007469 223.2893 136.7768 15.41948472143672
FLOCK 4E'-5             
1 46817U 20077E   23150.92309058  .00018298  00000+0  43574-3 0  9992
2 46817  97.3714 217.3807 0007626 231.8112 128.2448 15.41629883143606
FLOCK 4E'-3             
1 46819U 20077G   23151.16691248  .00020714  00000+0  49405-3 0  9991
2 46819  97.3688 217.3530 0008025 226.5409 133.5171 15.41553729143646
FLOCK 4E'-2             
1 46820U 20077H   23151.08676955  .00061032  00000+0  17744-2 0  9990
2 46820  97.3762 216.7973 0011944 228.9235 131.0978 15.35167887143559
FLOCK 4E'-4             
1 46821U 20077J   23150.92053544  .00050388  00000+0  16236-2 0  9993
2 46821  97.3731 215.1766 0012731 227.8702 132.1459 15.31940875143425
FLOCK 4E'-6             
1 46822U 20077K   23151.14259083  .00050768  00000+0  16854-2 0  9993
2 46822  97.3685 214.1007 0010640 236.9388 123.0832 15.31001290143455
FLOCK 4V-26             
1 46825U 20061BQ  23151.15773048  .00069787  00000+0  19351-2 0  9998
2 46825  97.3588 223.6828 0002019 311.5775  48.5296 15.36677375143461
FLOCK 4S-22             
1 47452U 21006AR  23151.39663417  .00013198  00000+0  46010-3 0  9997
2 47452  97.3927 210.5992 0009440 130.3405 229.8661 15.29721753130169
FLOCK 4S-21             
1 47456U 21006AV  23151.07224534  .00012310  00000+0  42869-3 0  9992
2 47456  97.3927 210.3456 0009536 132.2297 227.9754 15.29772238130113
FLOCK 4S-11             
1 47462U 21006BB  23151.07010189  .00004632  00000+0  22599-3 0  9994
2 47462  97.3899 205.9578 0007918 160.0186 200.1360 15.18753964129859
